STARLINK-31184          
1 58793U 24012G   26068.59151529 -.00004722  00000+0 -16209-3 0  9997
2 58793  43.0008 165.5727 0001129 192.4014 167.6810 15.27595186121222
FLOCK 4G-18             
1 62680U 25009BZ  26068.19114186  .00011766  00000+0  44319-3 0  9995
2 62680  97.4054 150.5008 0004100 335.7331  24.3715 15.27241676121267
